start=new Date('2022-06-27T00:00:00.000Z').valueOf();
sats=[{"REF_FRAME":"TEME","LAUNCH_DATE":"2021-12-02","FILE":"3503441","TLE_LINE2":"2 49725  53.2189  99.0130 0003332  61.0665 299.0661 15.08846738 31416","COUNTRY_CODE":"US","ELEMENT_SET_NO":"999","MEAN_MOTION_DDOT":"0.0000000000000","EPHEMERIS_TYPE":"0","CENTER_NAME":"EARTH","OBJECT_ID":"2021-115B","BSTAR":"0.00017397000000","INCLINATION":"53.2189","RA_OF_ASC_NODE":"99.0130","SEMIMAJOR_AXIS":"6917.860","REV_AT_EPOCH":"3141","PERIOD":"95.437","MEAN_ANOMALY":"299.0661","OBJECT_TYPE":"PAYLOAD","RCS_SIZE":"LARGE","APOAPSIS":"542.030","TIME_SYSTEM":"UTC","ECCENTRICITY":"0.00033320","MEAN_MOTION":"15.08846738","OBJECT_NAME":"STARLINK-3218","EPOCH":"2022-06-26T13:44:39.488928","MEAN_MOTION_DOT":"0.00002482","GP_ID":"206928098","CLASSIFICATION_TYPE":"U","MEAN_ELEMENT_THEORY":"SGP4","DECAY_DATE":null,"NORAD_CAT_ID":"49725","TLE_LINE1":"1 49725U 21115B   22177.57267927  .00002482  00000-0  17397-3 0  9997","SITE":"AFETR","PERIAPSIS":"537.420","ARG_OF_PERICENTER":"61.0665"},{"MEAN_MOTION":"15.08841448","OBJECT_NAME":"STARLINK-3237","EPOCH":"2022-06-26T12:48:58.557312","APOAPSIS":"541.670","TIME_SYSTEM":"UTC","ECCENTRICITY":"0.00027880","NORAD_CAT_ID":"49726","DECAY_DATE":null,"TLE_LINE1":"1 49726U 21115C   22177.53401108  .00001016  00000-0  81938-4 0  9990","SITE":"AFETR","ARG_OF_PERICENTER":"60.1937","PERIAPSIS":"537.812","CLASSIFICATION_TYPE":"U","MEAN_ELEMENT_THEORY":"SGP4","MEAN_MOTION_DOT":"0.00001016","GP_ID":"206896536","CENTER_NAME":"EARTH","EPHEMERIS_TYPE":"0","OBJECT_ID":"2021-115C","MEAN_MOTION_DDOT":"0.0000000000000","TLE_LINE2":"2 49726  53.2191 109.1953 0002788  60.1937 299.9332 15.08841448 31262","COUNTRY_CODE":"US","FILE":"3503181","ELEMENT_SET_NO":"999","REF_FRAME":"TEME","LAUNCH_DATE":"2021-12-02","OBJECT_TYPE":"PAYLOAD","RCS_SIZE":"LARGE","PERIOD":"95.437","MEAN_ANOMALY":"299.9332","RA_OF_ASC_NODE":"109.1953","SEMIMAJOR_AXIS":"6917.876","REV_AT_EPOCH":"3126","BSTAR":"0.00008193800000","INCLINATION":"53.2191"},{"TLE_LINE1":"1 49727U 21115D   22177.80265211 -.00000702  00000-0 -25980-4 0  9992","SITE":"AFETR","PERIAPSIS":"537.544","ARG_OF_PERICENTER":"61.9012","DECAY_DATE":null,"NORAD_CAT_ID":"49727","MEAN_ELEMENT_THEORY":"SGP4","CLASSIFICATION_TYPE":"U","MEAN_MOTION_DOT":"-0.00000702","GP_ID":"206900155","MEAN_MOTION":"15.08840198","EPOCH":"2022-06-26T19:15:49.142304","OBJECT_NAME":"STARLINK-3242","TIME_SYSTEM":"UTC","APOAPSIS":"541.946","ECCENTRICITY":"0.00031820","OBJECT_TYPE":"PAYLOAD","RCS_SIZE":"LARGE","MEAN_ANOMALY":"298.2301","PERIOD":"95.438","RA_OF_ASC_NODE":"107.9897","REV_AT_EPOCH":"3241","SEMIMAJOR_AXIS":"6917.880","INCLINATION":"53.2176","BSTAR":"-0.00002598000000","OBJECT_ID":"2021-115D","EPHEMERIS_TYPE":"0","CENTER_NAME":"EARTH","MEAN_MOTION_DDOT":"0.0000000000000","TLE_LINE2":"2 49727  53.2176 107.9897 0003182  61.9012 298.2301 15.08840198 32418","COUNTRY_CODE":"US","FILE":"3503268","ELEMENT_SET_NO":"999","LAUNCH_DATE":"2021-12-02","REF_FRAME":"TEME"},{"MEAN_MOTION_DOT":"0.00001676","GP_ID":"206900658","MEAN_ELEMENT_THEORY":"SGP4","CLASSIFICATION_TYPE":"U","DECAY_DATE":null,"NORAD_CAT_ID":"49728","TLE_LINE1":"1 49728U 21115E   22177.80632904  .00001676  00000-0  12336-3 0  9999","ARG_OF_PERICENTER":"61.1799","SITE":"AFETR","PERIAPSIS":"538.184","APOAPSIS":"541.289","TIME_SYSTEM":"UTC","ECCENTRICITY":"0.00022440","MEAN_MOTION":"15.08842806","OBJECT_NAME":"STARLINK-3240","EPOCH":"2022-06-26T19:21:06.829056","BSTAR":"0.00012336000000","INCLINATION":"53.2158","RA_OF_ASC_NODE":"107.9669","SEMIMAJOR_AXIS":"6917.872","REV_AT_EPOCH":"3241","PERIOD":"95.437","MEAN_ANOMALY":"298.9418","OBJECT_TYPE":"PAYLOAD","RCS_SIZE":"LARGE","REF_FRAME":"TEME","LAUNCH_DATE":"2021-12-02","COUNTRY_CODE":"US","TLE_LINE2":"2 49728  53.2158 107.9669 0002244  61.1799 298.9418 15.08842806 32412","FILE":"3503268","ELEMENT_SET_NO":"999","MEAN_MOTION_DDOT":"0.0000000000000","CENTER_NAME":"EARTH","EPHEMERIS_TYPE":"0","OBJECT_ID":"2021-115E"},{"REF_FRAME":"TEME","LAUNCH_DATE":"2021-12-02","FILE":"3503441","TLE_LINE2":"2 49729  53.2176 107.9525 0003608  62.6744 297.4615 15.08837748 31304","COUNTRY_CODE":"US","ELEMENT_SET_NO":"999","MEAN_MOTION_DDOT":"0.0000000000000","CENTER_NAME":"EARTH","EPHEMERIS_TYPE":"0","OBJECT_ID":"2021-115F","BSTAR":"0.00005274400000","INCLINATION":"53.2176","RA_OF_ASC_NODE":"107.9525","REV_AT_EPOCH":"3130","SEMIMAJOR_AXIS":"6917.887","PERIOD":"95.438","MEAN_ANOMALY":"297.4615","OBJECT_TYPE":"PAYLOAD","RCS_SIZE":"LARGE","APOAPSIS":"542.248","TIME_SYSTEM":"UTC","ECCENTRICITY":"0.00036080","MEAN_MOTION":"15.08837748","OBJECT_NAME":"STARLINK-3251","EPOCH":"2022-06-26T19:26:25.123200","MEAN_MOTION_DOT":"0.00000551","GP_ID":"206928598","MEAN_ELEMENT_THEORY":"SGP4","CLASSIFICATION_TYPE":"U","NORAD_CAT_ID":"49729","DECAY_DATE":null,"TLE_LINE1":"1 49729U 21115F   22177.81001300  .00000551  00000-0  52744-4 0  9990","SITE":"AFETR","PERIAPSIS":"537.256","ARG_OF_PERICENTER":"62.6744"},{"ECCENTRICITY":"0.00030210","APOAPSIS":"541.805","TIME_SYSTEM":"UTC","EPOCH":"2022-06-26T06:53:55.159872","OBJECT_NAME":"STARLINK-3249","MEAN_MOTION":"15.08850013","GP_ID":"206865098","MEAN_MOTION_DOT":"0.00001657","SITE":"AFETR","PERIAPSIS":"537.625","ARG_OF_PERICENTER":"61.0198","TLE_LINE1":"1 49730U 21115G   22177.28744398  .00001657  00000-0  12218-3 0  9993","DECAY_DATE":null,"NORAD_CAT_ID":"49730","CLASSIFICATION_TYPE":"U","MEAN_ELEMENT_THEORY":"SGP4","ELEMENT_SET_NO":"999","COUNTRY_CODE":"US","TLE_LINE2":"2 49730  53.2165 110.2879 0003021  61.0198 299.1097 15.08850013 32335","FILE":"3502853","LAUNCH_DATE":"2021-12-02","REF_FRAME":"TEME","OBJECT_ID":"2021-115G","CENTER_NAME":"EARTH","EPHEMERIS_TYPE":"0","MEAN_MOTION_DDOT":"0.0000000000000","SEMIMAJOR_AXIS":"6917.850","REV_AT_EPOCH":"3233","RA_OF_ASC_NODE":"110.2879","INCLINATION":"53.2165","BSTAR":"0.00012218000000","RCS_SIZE":"LARGE","OBJECT_TYPE":"PAYLOAD","MEAN_ANOMALY":"299.1097","PERIOD":"95.437"},{"MEAN_MOTION_DDOT":"0.0000000000000","OBJECT_ID":"2021-115H","CENTER_NAME":"EARTH","EPHEMERIS_TYPE":"0","LAUNCH_DATE":"2021-12-02","REF_FRAME":"TEME","TLE_LINE2":"2 49731  53.2164 109.1242 0003035  48.6203 311.5049 15.08837354 31269","COUNTRY_CODE":"US","FILE":"3503181","ELEMENT_SET_NO":"999","MEAN_ANOMALY":"311.5049","PERIOD":"95.438","OBJECT_TYPE":"PAYLOAD","RCS_SIZE":"LARGE","INCLINATION":"53.2164","BSTAR":"-0.00000476690000","RA_OF_ASC_NODE":"109.1242","REV_AT_EPOCH":"3126","SEMIMAJOR_AXIS":"6917.888","MEAN_MOTION":"15.08837354","OBJECT_NAME":"STARLINK-3228","EPOCH":"2022-06-26T13:10:10.653024","APOAPSIS":"541.853","TIME_SYSTEM":"UTC","ECCENTRICITY":"0.00030350","CLASSIFICATION_TYPE":"U","MEAN_ELEMENT_THEORY":"SGP4","TLE_LINE1":"1 49731U 21115H   22177.54873441 -.00000365  00000-0 -47669-5 0  9992","ARG_OF_PERICENTER":"48.6203","SITE":"AFETR","PERIAPSIS":"537.654","DECAY_DATE":null,"NORAD_CAT_ID":"49731","MEAN_MOTION_DOT":"-0.00000365","GP_ID":"206896789"},{"MEAN_ANOMALY":"302.1117","PERIOD":"95.437","OBJECT_TYPE":"PAYLOAD","RCS_SIZE":"LARGE","INCLINATION":"53.2170","BSTAR":"0.00008406000000","RA_OF_ASC_NODE":"110.5317","REV_AT_EPOCH":"3121","SEMIMAJOR_AXIS":"6917.868","MEAN_MOTION_DDOT":"0.0000000000000","OBJECT_ID":"2021-115J","CENTER_NAME":"EARTH","EPHEMERIS_TYPE":"0","LAUNCH_DATE":"2021-12-02","REF_FRAME":"TEME","COUNTRY_CODE":"US","TLE_LINE2":"2 49732  53.2170 110.5317 0002835  58.0151 302.1117 15.08844133 31210","FILE":"3503181","ELEMENT_SET_NO":"999","MEAN_ELEMENT_THEORY":"SGP4","CLASSIFICATION_TYPE":"U","TLE_LINE1":"1 49732U 21115J   22177.23224369  .00001050  00000-0  84060-4 0  9993","SITE":"AFETR","PERIAPSIS":"537.772","ARG_OF_PERICENTER":"58.0151","NORAD_CAT_ID":"49732","DECAY_DATE":null,"MEAN_MOTION_DOT":"0.00001050","GP_ID":"206897039","MEAN_MOTION":"15.08844133","EPOCH":"2022-06-26T05:34:25.854816","OBJECT_NAME":"STARLINK-3246","APOAPSIS":"541.694","TIME_SYSTEM":"UTC","ECCENTRICITY":"0.00028350"},{"GP_ID":"206896287","MEAN_MOTION_DOT":"0.00001037","NORAD_CAT_ID":"49733","DECAY_DATE":null,"SITE":"AFETR","ARG_OF_PERICENTER":"61.0732","PERIAPSIS":"537.615","TLE_LINE1":"1 49733U 21115K   22177.22489267  .00001037  00000-0  83286-4 0  9997","CLASSIFICATION_TYPE":"U","MEAN_ELEMENT_THEORY":"SGP4","ECCENTRICITY":"0.00031040","TIME_SYSTEM":"UTC","APOAPSIS":"541.909","OBJECT_NAME":"STARLINK-3252","EPOCH":"2022-06-26T05:23:50.726688","MEAN_MOTION":"15.08834506","REV_AT_EPOCH":"3121","SEMIMAJOR_AXIS":"6917.897","RA_OF_ASC_NODE":"110.5690","BSTAR":"0.00008328600000","INCLINATION":"53.2171","RCS_SIZE":"LARGE","OBJECT_TYPE":"PAYLOAD","PERIOD":"95.438","MEAN_ANOMALY":"299.0572","ELEMENT_SET_NO":"999","COUNTRY_CODE":"US","TLE_LINE2":"2 49733  53.2171 110.5690 0003104  61.0732 299.0572 15.08834506 31217","FILE":"3503181","REF_FRAME":"TEME","LAUNCH_DATE":"2021-12-02","CENTER_NAME":"EARTH","EPHEMERIS_TYPE":"0","OBJECT_ID":"2021-115K","MEAN_MOTION_DDOT":"0.0000000000000"},{"APOAPSIS":"541.781","TIME_SYSTEM":"UTC","ECCENTRICITY":"0.00029750","MEAN_MOTION":"15.08847507","OBJECT_NAME":"STARLINK-3238","EPOCH":"2022-06-26T12:13:11.638272","MEAN_MOTION_DOT":"0.00003404","GP_ID":"206896537","TLE_LINE1":"1 49734U 21115L   22177.50916248  .00003404  00000-0  23183-3 0  9992","PERIAPSIS":"537.664","SITE":"AFETR","ARG_OF_PERICENTER":"61.1794","DECAY_DATE":null,"NORAD_CAT_ID":"49734","CLASSIFICATION_TYPE":"U","MEAN_ELEMENT_THEORY":"SGP4","TLE_LINE2":"2 49734  53.2195  99.2988 0002975  61.1794 298.9496 15.08847507 31400","COUNTRY_CODE":"US","FILE":"3503181","ELEMENT_SET_NO":"999","LAUNCH_DATE":"2021-12-02","REF_FRAME":"TEME","OBJECT_ID":"2021-115L","CENTER_NAME":"EARTH","EPHEMERIS_TYPE":"0","MEAN_MOTION_DDOT":"0.0000000000000","RA_OF_ASC_NODE":"99.2988","REV_AT_EPOCH":"3140","SEMIMAJOR_AXIS":"6917.857","INCLINATION":"53.2195","BSTAR":"0.00023183000000","OBJECT_TYPE":"PAYLOAD","RCS_SIZE":"LARGE","MEAN_ANOMALY":"298.9496","PERIOD":"95.437"}];
